#dP2022  4 23  6  0  0.00000000      96 __u+U ITR00 EXT  IAC
## 2206 540000.00000000   900.00000000 59692 0.2500000000000
+  116   C06C07C08C09C10C11C12C13C14C16C19C20C21C22C23C24C25
+        C26C27C28C29C30C32C33C34C35C36C37C38C39C40C41C42C43
+        C44C45C46E01E02E03E04E05E07E08E09E10E11E12E13E14E15
+        E18E19E21E24E25E26E27E30E31E33E34E36G01G02G03G04G05
+        G06G07G08G09G10G11G12G13G14G15G16G18G19G20G21G22G23
+        G24G25G26G27G28G29G30G31G32J02J03R01R02R03R04R05R07
+        R08R09R11R12R13R14R15R17R18R19R20R21R22R24  0  0  0
++        11  9  8 11  9  9  9  9  8 11  8  8  9  9  8  9  8
++         9  8  9 10  9  8  9  9  9  9  9  9  9 10  9 10  8
++         9  9  9  8  8  8  8  9  9  8  8  8  7  8  7  8  8
++         8  8  8  9  8  8  8  8  8  8  8  8  7  8  8  8  9
++         8  7  8  8  8  8  8  8  8  8  8  8  8  9  8  8  9
++         8  8  8  8  8  8  8  7  8 10 10  9  9  9 10  8  9
++         8  8  8  8  9  9  8  7  8  8  9  9  9  8  0  0  0
%c M  cc GPS ccc cccc cccc cccc cccc ccccc ccccc ccccc ccccc
%c cc cc ccc ccc cccc cccc cccc cccc ccccc ccccc ccccc ccccc
%f  0.0000000  0.000000000  0.00000000000  0.000000000000000
%f  0.0000000  0.000000000  0.00000000000  0.000000000000000
%i    0    0    0    0      0      0      0      0         0
%i    0    0    0    0      0      0      0      0         0
/* IAC                                ULTRA-RAPID PREDICTION
/* S/V CLOCKS ARE ALIGNED TO GNSS TIME                      
/* G:C1WC2W R:C1PC2P E:C1XC5X C:C2IC6I J:C1CC2S             
/* PCV:IGS14_2196 OL/AL:FES2004  NONE     YN ORB:CoN CLK:CoN
*  2022 04 24  0 15  0.00000000
PC06 -18749.341249  32621.924523  18835.329820   -148.021618
PC07  -5085.172668  37859.142681  18014.627000    -78.503301
PC08  -6679.099413  19834.997059 -36594.575908    275.950598
PC09  -9777.343547  31060.158512  26862.917389   -724.253850
PC10   1329.145344  40772.447292  11854.485027    135.165514
PC11 -16961.152794  -4369.924226  21790.004048    310.326942
PC12  -1048.733760 -17826.400522  21472.385854   -625.078088
PC13   3064.139891  23633.312634 -34601.353073    -52.155067
PC14 -15693.921895 -14745.560930 -17688.907895    462.067178
PC16 -20762.279900  32464.892933  16975.513379    123.276458
PC19  16487.905879   4210.469393  22153.803652    875.723214
PC20  13035.578423  21642.050972  11909.058186   -888.649810
PC21  -1427.726807 -27157.244208   6223.090106   -166.762497
PC22  10572.010945 -16349.922409  19987.773926   -970.630814
PC23 -18605.382426   8294.556116  19075.504483   -931.423279
PC24 -18993.822427 -15952.379717 -12821.494512   -956.405265
PC25 -27077.540234  -4173.278281   5354.350164   -746.623677
PC26  -1958.602721 -17062.959386 -22012.324465    747.504922
PC27  -7402.057315  21427.038002 -16284.382843    712.541410
PC28 -20841.097918  18554.657281   -361.994264     58.801203
PC29  22039.337154  -5265.145200 -16302.909732    545.424435
PC30  10311.639664  12139.215042 -22923.337761    497.422071
PC32   1657.407975  27161.673464  -6196.027485   -962.771067
PC33 -16518.988226  -4169.229600 -22085.961481   -966.701267
PC34 -11137.091606 -11412.352600  22886.601018   -418.842976
PC35  20624.310508 -18821.308459   -583.773578    242.653054
PC36  26983.871511   5173.679015  -4854.022492   -963.880182
PC37    199.601151  16838.371686  22261.919074   -919.707720
PC38 -15161.941342  19049.818778 -34412.252326    227.283634
PC39 -24092.636241  32880.844122  10452.450765     34.948327
PC40  -8862.750112  34965.863881  21948.160238    263.361221
PC41 -10740.274046  16003.553612 -20125.103554   -966.480073
PC42 -12599.403474 -22325.268511 -10950.088536   -956.054792
PC43 -21883.443319   4490.667898  16695.683136   -928.170087
PC44   6830.338947 -21807.982340  16026.442635    637.539784
PC45  18322.539254  -8393.921298 -19293.712684    739.204472
PC46  20149.103971  15361.377047  11655.322342   -288.050622
PE01   6217.206807  23651.574336  16668.845619   -622.198743
PE02  -6376.232145 -23708.695104 -16553.480585    294.774830
PE03   3017.760565 -28350.460826  -7929.675285   -551.164526
PE04  10626.082578  17184.969483  21644.808988  -1013.102147
PE05  15156.791163 -23058.337984  10719.482262   -188.020475
PE07 -18289.028324   4453.908070 -22834.386123   -661.628664
PE08 -10741.244119 -16815.123801 -21853.144586   -517.462457
PE09  18166.213235  -4700.659071  22898.421561   -494.680111
PE10  25688.191956   3483.401022 -14301.712366   -508.616298
PE11  29023.664315  -3462.130998  -4759.220184   3872.016444
PE12  18511.176603   9735.286926 -20960.413370   4647.838590
PE13 -28925.132568   3093.533431   5436.182364    428.227859
PE14 -10433.660598  28513.080686  -4926.511937  -1824.740280
PE15 -18350.575730  -9720.265281  21091.522906    749.844464
PE18  15644.814244 -20112.667264  -4859.585620  -1529.203504
PE19  -4846.326263  28636.084178   5722.332192  -3519.957631
PE21 -10552.995878  13034.085571  24385.942824   -730.211419
PE24  22646.578851   6866.367042 -17781.952339   -577.499603
PE25  10768.370338 -12821.076475 -24408.244543   -571.481098
PE26 -21724.877088  14379.569964 -14045.078472  -1065.296549
PE27 -22341.814329  -5692.683048  18568.912400   -283.124903
PE30 -20341.845527 -21496.640324    884.841649   -455.153129
PE31  20873.375747  20899.543526  -1873.839269   -495.541574
PE33  -2969.132673  16732.884711 -24231.916689   -457.321292
PE34   2725.160134 -16715.834673  24267.609269   -513.597896
PE36  22448.983951 -13997.013722  13293.374929   -363.950390
PG01   8798.963346  13474.980843 -21491.748070    378.178440
PG02  14427.755307 -14792.406191  17423.014940   -653.228205
PG03  12352.050564  23070.703889  -4992.224806   -218.588418
PG04   2527.321635  20704.517571  16402.538525   -173.383342
PG05   -207.265614 -19939.619015  17307.164666    -79.393492
PG06  25463.131776  -5796.027408   5146.684601    277.728491
PG07  22997.587906   6726.613996  12375.228070    320.977474
PG08  -4159.341064  24648.672541  -8469.896653    -65.196198
PG09  11252.736989  11561.058120  21028.096943   -341.694329
PG10 -18706.489860  -4719.046328 -18236.007202   -389.656547
PG11  15471.182019 -12774.955941  17392.033996    -34.925982
PG12  -7912.624465 -24045.399816  -8508.749990   -204.972950
PG13  12902.700037 -23041.721382  -1918.571576    299.472000
PG14  18965.370143   5965.196859 -17656.052525   -104.524961
PG15    428.714449 -24872.109789  -9261.751460    -66.597074
PG16  -5753.689036  16601.038143  19497.936085   -494.607769
PG18 -22521.518774  -6761.484497  12446.039431    187.905622
PG19  18615.507206 -12110.847310 -14677.427389    148.342316
PG20   8146.467325 -13726.206528  21254.190503    515.685200
PG21  -2590.674031  15276.964588 -20833.780631    160.676019
PG22 -17884.298229  15310.877278 -11702.120507    248.151388
PG23 -19871.486530 -14324.412214 -10401.019990    -17.160955
PG24  -4816.638927 -15274.291882 -21507.222141    252.248476
PG25 -17574.840685 -19702.714144   3748.110736    315.910653
PG26 -14115.177555   7288.866556  21223.531541    200.813284
PG27 -12469.677016  23014.693590   2756.513215    189.892895
PG28  15180.390375  -2740.279872 -21078.654046    368.043564
PG29  -9129.277295 -12945.389949  21256.726473   -506.356821
PG30  26441.365850    611.477778   3720.808507   -525.100592
PG31 -24823.564209   6955.848297   7203.797825   -174.720299
PG32 -17517.094298   8805.595376 -17684.466272   -111.909177
PJ02 -25176.204118  22456.352729  30228.698612     -2.958900
PJ03 -35281.916638  22648.736338    106.149083     -1.715689
PR01  -9313.107479 -15750.166911 -17757.795899      8.064421
PR02 -10561.173095   5068.888274 -22603.238696    516.432839
PR03  -5630.930121  21166.133345 -12979.344463     55.464560
PR04   2258.143435  25136.196318   3716.639235    138.198530
PR05   8877.462720  15298.764159  18387.420961     91.693222
PR07   5397.194306 -21640.005303  12465.805817     34.228370
PR08  -2348.136705 -25135.004814  -3683.668289    -64.750418
PR09  20730.424811   2568.758686 -14677.680413     51.405243
PR11  -9588.148790 -14831.034290 -18391.541330     40.504206
PR12 -21907.905902 -12905.197986  -2141.917833     18.085198
PR13 -21150.211491  -3600.838435  13780.164549    -21.314542
PR14  -7267.239478   8671.795141  22868.754455     76.848981
PR15  10120.834889  15172.994683  17849.882284     96.624856
PR17 -17724.865141  15734.123245  -9468.161399    520.140726
PR18  -3758.550646  13376.518380 -21366.435468    114.584334
PR19  11093.201140   5166.961368 -22385.288118   -186.492606
PR20  22559.375700  -8104.388371  -8787.991870    -69.212894
PR21  16855.468729 -15754.636263  10853.973523   -295.731038
PR22   3161.250046 -13055.331943  21690.454458   -178.797269
PR24 -22516.499629   8875.055463   8080.388706     90.519887
EOF
